ONEWEB-0267             
1 48985U 21060U   21237.25001157 -.01327563  00000-0 -65540+0 0  9997
2 48985  87.6152 219.6284 0008579  84.9297 163.0416 14.21194740  9446
ONEWEB-0268             
1 48986U 21060V   21237.25001157 -.01297770  00000-0 -55440+0 0  9992
2 48986  87.6370 219.6468 0009601  90.4947  31.0804 14.28690492  9474
ONEWEB-0269             
1 48987U 21060W   21237.25001157 -.01364338  00000-0 -61916+0 0  9993
2 48987  87.6390 219.6419 0009344  78.4651 187.6413 14.25732406  9489
ONEWEB-0270             
1 48988U 21060X   21237.25001157 -.01341603  00000-0 -45020+0 0  9992
2 48988  87.6224 219.5876 0012944  58.6295 338.0461 14.41048610  9509
ONEWEB-0271             
1 48989U 21060Y   21237.25001157 -.01358094  00000-0 -52917+0 0  9998
2 48989  87.6945 219.6093 0010306  88.6464  75.7480 14.33587484  9507
ONEWEB-0272             
1 48990U 21060Z   21236.91667824 -.01346516  00000-0 -62226+0 0  9991
2 48990  87.6230 219.7348 0009579  76.0448 265.0918 14.24729893  9426
ONEWEB-0273             
1 48991U 21060AA  21237.58335648 -.01460751  00000-0 -76515+0 0  9996
2 48991  87.6055 219.5627 0014399  79.4266 213.7025 14.17759356  9508
ONEWEB-0274             
1 48992U 21060AB  21236.91667824 -.01326236  00000-0 -58835+0 0  9991
2 48992  87.6384 219.7427 0011607  85.3788  82.5901 14.26798060  9441
ONEWEB-0275             
1 48993U 21060AC  21237.25001157 -.01381485  00000-0 -78020+0 0  9996
2 48993  87.5722 219.6363 0009999  91.2109 173.6639 14.14124792  9430
ONEWEB-0276             
1 48994U 21060AD  21236.91667824 -.01368679  00000-0 -71191+0 0  9990
2 48994  87.5868 219.7233 0013084  74.3230 107.5047 14.18503134  9418
ONEWEB-0277             
1 48995U 21060AE  21236.91667824 -.01386405  00000-0 -74091+0 0  9990
2 48995  87.5808 219.7519 0013204  91.8451 139.4862 14.17101191  3513
ONEWEB-0278             
1 48996U 21060AF  21237.25001157 -.01372913  00000-0 -47588+0 0  9990
2 48996  87.6411 219.6113 0013945  60.0583  21.9409 14.38930863  9517
ONEWEB-0279             
1 48997U 21060AG  21237.25001157 -.01370415  00000-0 -69888+0 0  9993
2 48997  87.5849 219.6377 0013405  74.3459  26.8137 14.19560421  9469
ONEWEB-0280             
1 48998U 21060AH  21236.91667824 -.01333945  00000-0 -73684+0 0  9991
2 48998  87.5699 219.7083 0007803  88.5166 195.2821 14.15200542  9388
ONEWEB-0281             
1 48999U 21060AJ  21237.25001157 -.01382738  00000-0 -62922+0 0  9998
2 48999  87.6455 219.6608 0011753  82.4734 329.4180 14.25628194  9494
ONEWEB-0282             
1 49000U 21060AK  21236.91667824 -.01342443  00000-0 -63052+0 0  9997
2 49000  87.6338 219.7174 0013622  71.0590 270.8758 14.23840562  9446
ONEWEB-0283             
1 49001U 21060AL  21236.91667824 -.01345413  00000-0 -62930+0 0  9992
2 49001  87.6366 219.7247 0012705  66.6013 316.5502 14.24073645  9446
ONEWEB-0284             
1 49002U 21060AM  21237.25001157 -.01352006  00000-0 -69455+0 0  9997
2 49002  87.6184 219.6535 0008668  71.1015 267.3839 14.19146019  9468
ONEWEB-0285             
1 49075U 21075A   21236.91667824 -.00035474  00000-0 -98407-3 0  9993
2 49075  87.4012   5.3025 0016082 300.1921  70.4148 15.37003040  1735
ONEWEB-0286             
1 49076U 21075B   21237.58335648 -.00026401  00000-0 -71436-3 0  9997
2 49076  87.4016   5.0671 0018548 301.6907 164.3004 15.37706818  1842
ONEWEB-0287             
1 49077U 21075C   21237.58335648 -.00024321  00000-0 -72780-3 0  9990
2 49077  87.4023   5.0724 0016898 298.5198 127.8649 15.34590221  1836
ONEWEB-0288             
1 49078U 21075D   21237.58335648 -.00022484  00000-0 -61086-3 0  9996
2 49078  87.4019   5.0646 0018142 302.8051 161.5470 15.37581846  1840
ONEWEB-0289             
1 49079U 21075E   21237.58335648 -.00024073  00000-0 -69214-3 0  9994
2 49079  87.3992   5.0677 0020290 295.4777 145.8991 15.35779212  1828
ONEWEB-0290             
1 49080U 21075F   21237.16667824  .00046236  00000-0  13257-2 0  9992
2 49080  87.4002   5.2182 0020351 300.5029 356.0422 15.35497774  1771
ONEWEB-0291             
1 49081U 21075G   21237.58335648 -.00024614  00000-0 -68764-3 0  9997
2 49081  87.4009   5.0647 0016529 293.3980 160.3177 15.36750807  1841
ONEWEB-0293             
1 49082U 21075H   21236.91667824 -.00035650  00000-0 -10218-2 0  9990
2 49082  87.4016   5.3066 0020200 297.2993  61.9562 15.35906047  1736
ONEWEB-0294             
1 49083U 21075J   21237.58335648 -.00026700  00000-0 -70632-3 0  9994
2 49083  87.4039   5.0654 0019549 293.3419 181.3444 15.38382779  1847
ONEWEB-0295             
1 49084U 21075K   21237.58335648 -.00019632  00000-0 -58242-3 0  9994
2 49084  87.4037   5.0726 0017669 301.0057 128.5142 15.34843473  1827
ONEWEB-0296             
1 49085U 21075L   21237.58335648 -.00026398  00000-0 -70830-3 0  9999
2 49085  87.4018   5.0652 0019379 299.7826 169.3102 15.37949133  1846
ONEWEB-0297             
1 49086U 21075M   21236.91667824 -.00035060  00000-0 -97610-3 0  9991
2 49086  87.4026   5.3059 0016300 298.5966  70.7949 15.36886008  1432
ONEWEB-0298             
1 49087U 21075N   21236.91667824 -.00035512  00000-0 -10069-2 0  9996
2 49087  87.3992   5.3063 0018699 294.2218  68.8249 15.36273830  1473
ONEWEB-0299             
1 49088U 21075P   21236.91667824 -.00036262  00000-0 -10818-2 0  9992
2 49088  87.3990   5.3068 0017241 303.0354  43.9672 15.34710459  1586
ONEWEB-0300             
1 49089U 21075Q   21236.91667824 -.00033044  00000-0 -90324-3 0  9999
2 49089  87.4005   5.3022 0017127 306.0460  69.0053 15.37434885  1513
ONEWEB-0301             
1 49090U 21075R   21237.58335648 -.00026614  00000-0 -70649-3 0  9994
2 49090  87.4011   5.0630 0019686 294.6566 178.6178 15.38273308  1848
ONEWEB-0302             
1 49091U 21075S   21237.58335648 -.00026802  00000-0 -70581-3 0  9999
2 49091  87.3998   5.0613 0019451 291.5582 184.9593 15.38524110  1848
ONEWEB-0304             
1 49092U 21075T   21237.58335648 -.00024527  00000-0 -72390-3 0  9992
2 49092  87.4014   5.0706 0018534 303.5957 127.8805 15.34995454  1833
ONEWEB-0305             
1 49093U 21075U   21237.58335648 -.00025054  00000-0 -71242-3 0  9994
2 49093  87.4029   5.0685 0019194 291.3890 154.7008 15.36150116  1822
ONEWEB-0308             
1 49094U 21075V   21236.91667824 -.00034615  00000-0 -93320-3 0  9999
2 49094  87.4019   5.2995 0018971 304.0466  75.1857 15.37830067  1741
ONEWEB-0309             
1 49095U 21075W   21236.91667824 -.00035958  00000-0 -10486-2 0  9992
2 49095  87.4008   5.3072 0019929 304.4298  49.3346 15.35371789  1732
ONEWEB-0310             
1 49096U 21075X   21236.91667824 -.00035131  00000-0 -96407-3 0  9994
2 49096  87.4035   5.3031 0016745 305.1869  68.7801 15.37325987  1746
ONEWEB-0311             
1 49097U 21075Y   21237.58335648 -.00024537  00000-0 -68793-3 0  9990
2 49097  87.4022   5.0683 0016771 291.9075 160.3472 15.36635390  1848
ONEWEB-0312             
1 49098U 21075Z   21236.91667824 -.00035678  00000-0 -10307-2 0  9996
2 49098  87.4028   5.3082 0020338 300.3647  56.3127 15.35656881  1731
ONEWEB-0313             
1 49099U 21075AA  21236.91667824 -.00035401  00000-0 -99994-3 0  9991
2 49099  87.4014   5.3049 0018153 293.8435  70.5433 15.36403084  1748
ONEWEB-0314             
1 49100U 21075AB  21236.91667824 -.00035506  00000-0 -10504-2 0  9999
2 49100  87.4004   5.3070 0018028 305.3845  44.1314 15.34957762  1738
ONEWEB-0315             
1 49101U 21075AC  21236.91667824 -.00034961  00000-0 -96427-3 0  9993
2 49101  87.3991   5.3022 0016222 303.8676  68.5434 15.37177260  1743
ONEWEB-0316             
1 49102U 21075AD  21236.91667824 -.00034293  00000-0 -88582-3 0  9995
2 49102  87.4039   5.2994 0017183 287.7319 105.6884 15.39177810  1752
ONEWEB-0317             
1 49103U 21075AE  21236.91667824 -.00034462  00000-0 -95380-3 0  9998
2 49103  87.4022   5.3031 0015855 303.0034  68.3398 15.37075086  1731
ONEWEB-0318             
1 49104U 21075AF  21237.58335648 -.00027334  00000-0 -70303-3 0  9997
2 49104  87.4014   5.0639 0016667 284.1695 202.4192 15.39303445  1859
ONEWEB-0319             
1 49105U 21075AG  21237.58335648 -.00024183  00000-0 -68928-3 0  9997
2 49105  87.4006   5.0697 0019573 291.9612 152.6756 15.36067285  1846
ONEWEB-0323             
1 49106U 21075AH  21237.58335648 -.00026884  00000-0 -70545-3 0  9996
2 49106  87.4026   5.0637 0019344 290.1783 187.7848 15.38636244  1849
ONEWEB-0329             
1 49107U 21075AJ  21237.58335648 -.00024586  00000-0 -72258-3 0  9997
2 49107  87.4006   5.0729 0018980 302.6951 130.3493 15.35119802  1833
ONEWEB-0330             
1 49108U 21075AK  21236.91667824 -.00035430  00000-0 -10374-2 0  9998
2 49108  87.4016   5.3048 0019475 305.2412  47.2724 15.35252243  1631
